start=new Date('2023-03-28T00:00:00.000Z').valueOf();
sats=[{"REF_FRAME":"TEME","BSTAR":"0.00236630000000","OBJECT_TYPE":"PAYLOAD","OBJECT_ID":"2021-018T","TLE_LINE1":"1 47804U 21018T   23086.24473563  .00035154  00000-0  23663-2 0  9998","PERIOD":"95.591","APOAPSIS":"547.943","MEAN_ELEMENT_THEORY":"SGP4","GP_ID":"228957482","OBJECT_NAME":"STARLINK-2385","EPHEMERIS_TYPE":"0","TLE_LINE2":"2 47804  53.0545  32.9447 0001116 101.9391 258.1723 15.06414290114320","DECAY_DATE":null,"CLASSIFICATION_TYPE":"U","MEAN_MOTION_DDOT":"0.0000000000000","REV_AT_EPOCH":"11432","PERIAPSIS":"546.397","EPOCH":"2023-03-27T05:52:25.158432","FILE":"3872569","TIME_SYSTEM":"UTC","NORAD_CAT_ID":"47804","MEAN_MOTION":"15.06414290","LAUNCH_DATE":"2021-03-11","ARG_OF_PERICENTER":"101.9391","MEAN_MOTION_DOT":"0.00035154","ECCENTRICITY":"0.00011160","ELEMENT_SET_NO":"999","COUNTRY_CODE":"US","MEAN_ANOMALY":"258.1723","CENTER_NAME":"EARTH","RCS_SIZE":"LARGE","INCLINATION":"53.0545","SITE":"AFETR","RA_OF_ASC_NODE":"32.9447","SEMIMAJOR_AXIS":"6925.305"},{"MEAN_MOTION_DDOT":"0.0000000000000","CLASSIFICATION_TYPE":"U","PERIAPSIS":"546.024","EPOCH":"2023-03-27T19:24:33.437376","REV_AT_EPOCH":"11441","TIME_SYSTEM":"UTC","NORAD_CAT_ID":"47805","FILE":"3872915","LAUNCH_DATE":"2021-03-11","MEAN_MOTION":"15.06398199","MEAN_MOTION_DOT":"0.00023982","ARG_OF_PERICENTER":"101.6059","MEAN_ANOMALY":"258.5124","COUNTRY_CODE":"US","ELEMENT_SET_NO":"999","ECCENTRICITY":"0.00017260","RCS_SIZE":"LARGE","INCLINATION":"53.0553","CENTER_NAME":"EARTH","SEMIMAJOR_AXIS":"6925.354","RA_OF_ASC_NODE":"30.6542","SITE":"AFETR","BSTAR":"0.00162350000000","OBJECT_TYPE":"PAYLOAD","OBJECT_ID":"2021-018U","REF_FRAME":"TEME","TLE_LINE1":"1 47805U 21018U   23086.80872034  .00023982  00000-0  16235-2 0  9990","APOAPSIS":"548.414","PERIOD":"95.592","MEAN_ELEMENT_THEORY":"SGP4","EPHEMERIS_TYPE":"0","GP_ID":"228990937","OBJECT_NAME":"STARLINK-2386","DECAY_DATE":null,"TLE_LINE2":"2 47805  53.0553  30.6542 0001726 101.6059 258.5124 15.06398199114414"},{"TIME_SYSTEM":"UTC","NORAD_CAT_ID":"47806","FILE":"3872569","MEAN_MOTION":"15.06405822","LAUNCH_DATE":"2021-03-11","MEAN_MOTION_DDOT":"0.0000000000000","CLASSIFICATION_TYPE":"U","PERIAPSIS":"546.131","EPOCH":"2023-03-27T09:57:14.024160","REV_AT_EPOCH":"11420","CENTER_NAME":"EARTH","INCLINATION":"53.0534","RCS_SIZE":"LARGE","SEMIMAJOR_AXIS":"6925.331","SITE":"AFETR","RA_OF_ASC_NODE":"47.1891","MEAN_MOTION_DOT":"0.00024331","ARG_OF_PERICENTER":"106.9320","COUNTRY_CODE":"US","MEAN_ANOMALY":"253.1837","ECCENTRICITY":"0.00015380","ELEMENT_SET_NO":"999","APOAPSIS":"548.261","PERIOD":"95.592","REF_FRAME":"TEME","OBJECT_ID":"2021-018V","OBJECT_TYPE":"PAYLOAD","BSTAR":"0.00164640000000","TLE_LINE1":"1 47806U 21018V   23086.41474565  .00024331  00000-0  16464-2 0  9998","DECAY_DATE":null,"TLE_LINE2":"2 47806  53.0534  47.1891 0001538 106.9320 253.1837 15.06405822114205","MEAN_ELEMENT_THEORY":"SGP4","GP_ID":"228957983","OBJECT_NAME":"STARLINK-2387","EPHEMERIS_TYPE":"0"},{"RCS_SIZE":"LARGE","INCLINATION":"53.0546","CENTER_NAME":"EARTH","SEMIMAJOR_AXIS":"6925.350","RA_OF_ASC_NODE":"20.4426","SITE":"AFETR","MEAN_MOTION_DOT":"0.00043401","ARG_OF_PERICENTER":"97.4472","MEAN_ANOMALY":"262.6730","COUNTRY_CODE":"US","ELEMENT_SET_NO":"999","ECCENTRICITY":"0.00018680","TIME_SYSTEM":"UTC","NORAD_CAT_ID":"47807","FILE":"3872915","LAUNCH_DATE":"2021-03-11","MEAN_MOTION":"15.06399605","MEAN_MOTION_DDOT":"0.0000000000000","CLASSIFICATION_TYPE":"U","PERIAPSIS":"545.921","EPOCH":"2023-03-27T19:15:11.375136","REV_AT_EPOCH":"11454","DECAY_DATE":null,"TLE_LINE2":"2 47807  53.0546  20.4426 0001868  97.4472 262.6730 15.06399605114540","MEAN_ELEMENT_THEORY":"SGP4","EPHEMERIS_TYPE":"0","OBJECT_NAME":"STARLINK-2388","GP_ID":"228991939","APOAPSIS":"548.508","PERIOD":"95.592","BSTAR":"0.00291470000000","OBJECT_TYPE":"PAYLOAD","OBJECT_ID":"2021-018W","REF_FRAME":"TEME","TLE_LINE1":"1 47807U 21018W   23086.80221499  .00043401  00000-0  29147-2 0  9999"},{"RA_OF_ASC_NODE":"47.6931","SITE":"AFETR","SEMIMAJOR_AXIS":"6925.303","RCS_SIZE":"LARGE","INCLINATION":"53.0542","CENTER_NAME":"EARTH","ELEMENT_SET_NO":"999","ECCENTRICITY":"0.00014170","MEAN_ANOMALY":"261.8246","COUNTRY_CODE":"US","ARG_OF_PERICENTER":"98.2903","MEAN_MOTION_DOT":"0.00030811","LAUNCH_DATE":"2021-03-11","MEAN_MOTION":"15.06415002","FILE":"3872569","TIME_SYSTEM":"UTC","NORAD_CAT_ID":"47808","REV_AT_EPOCH":"11418","EPOCH":"2023-03-27T07:12:41.817600","PERIAPSIS":"546.186","CLASSIFICATION_TYPE":"U","MEAN_MOTION_DDOT":"0.0000000000000","TLE_LINE2":"2 47808  53.0542  47.6931 0001417  98.2903 261.8246 15.06415002114180","DECAY_DATE":null,"EPHEMERIS_TYPE":"0","GP_ID":"228956983","OBJECT_NAME":"STARLINK-2389","MEAN_ELEMENT_THEORY":"SGP4","PERIOD":"95.591","APOAPSIS":"548.149","TLE_LINE1":"1 47808U 21018X   23086.30048400  .00030811  00000-0  20775-2 0  9993","OBJECT_ID":"2021-018X","OBJECT_TYPE":"PAYLOAD","BSTAR":"0.00207750000000","REF_FRAME":"TEME"},{"CENTER_NAME":"EARTH","RCS_SIZE":"LARGE","INCLINATION":"53.0547","SITE":"AFETR","RA_OF_ASC_NODE":"51.1759","SEMIMAJOR_AXIS":"6925.313","ARG_OF_PERICENTER":"71.7185","MEAN_MOTION_DOT":"0.00018263","ECCENTRICITY":"0.00015010","ELEMENT_SET_NO":"999","COUNTRY_CODE":"US","MEAN_ANOMALY":"288.3967","FILE":"3872915","TIME_SYSTEM":"UTC","NORAD_CAT_ID":"47809","MEAN_MOTION":"15.06411599","LAUNCH_DATE":"2021-03-11","CLASSIFICATION_TYPE":"U","MEAN_MOTION_DDOT":"0.0000000000000","REV_AT_EPOCH":"11416","PERIAPSIS":"546.139","EPOCH":"2023-03-27T15:16:19.612704","TLE_LINE2":"2 47809  53.0547  51.1759 0001501  71.7185 288.3967 15.06411599114165","DECAY_DATE":null,"MEAN_ELEMENT_THEORY":"SGP4","OBJECT_NAME":"STARLINK-2390","GP_ID":"228991437","EPHEMERIS_TYPE":"0","APOAPSIS":"548.217","PERIOD":"95.591","REF_FRAME":"TEME","OBJECT_TYPE":"PAYLOAD","OBJECT_ID":"2021-018Y","BSTAR":"0.00124140000000","TLE_LINE1":"1 47809U 21018Y   23086.63633811  .00018263  00000-0  12414-2 0  9994"},{"SEMIMAJOR_AXIS":"6925.372","RA_OF_ASC_NODE":"61.0719","SITE":"AFETR","RCS_SIZE":"LARGE","INCLINATION":"53.0551","CENTER_NAME":"EARTH","MEAN_ANOMALY":"289.0140","COUNTRY_CODE":"US","ELEMENT_SET_NO":"999","ECCENTRICITY":"0.00016790","MEAN_MOTION_DOT":"0.00005789","ARG_OF_PERICENTER":"71.1031","LAUNCH_DATE":"2021-03-11","MEAN_MOTION":"15.06392200","TIME_SYSTEM":"UTC","NORAD_CAT_ID":"47810","FILE":"3872915","EPOCH":"2023-03-27T15:53:29.870592","PERIAPSIS":"546.075","REV_AT_EPOCH":"11402","MEAN_MOTION_DDOT":"0.0000000000000","CLASSIFICATION_TYPE":"U","DECAY_DATE":null,"TLE_LINE2":"2 47810  53.0551  61.0719 0001679  71.1031 289.0140 15.06392200114021","EPHEMERIS_TYPE":"0","GP_ID":"228991689","OBJECT_NAME":"STARLINK-2391","MEAN_ELEMENT_THEORY":"SGP4","APOAPSIS":"548.400","PERIOD":"95.593","TLE_LINE1":"1 47810U 21018Z   23086.66215128  .00005789  00000-0  40730-3 0  9998","OBJECT_ID":"2021-018Z","OBJECT_TYPE":"PAYLOAD","BSTAR":"0.00040730000000","REF_FRAME":"TEME"},{"SEMIMAJOR_AXIS":"6925.409","SITE":"AFETR","RA_OF_ASC_NODE":"30.2983","CENTER_NAME":"EARTH","RCS_SIZE":"LARGE","INCLINATION":"53.0550","COUNTRY_CODE":"US","MEAN_ANOMALY":"265.0827","ECCENTRICITY":"0.00016580","ELEMENT_SET_NO":"999","MEAN_MOTION_DOT":"0.00008050","ARG_OF_PERICENTER":"95.0351","MEAN_MOTION":"15.06380174","LAUNCH_DATE":"2021-03-11","NORAD_CAT_ID":"47811","TIME_SYSTEM":"UTC","FILE":"3872915","EPOCH":"2023-03-27T20:01:40.477728","PERIAPSIS":"546.126","REV_AT_EPOCH":"11447","MEAN_MOTION_DDOT":"0.0000000000000","CLASSIFICATION_TYPE":"U","DECAY_DATE":null,"TLE_LINE2":"2 47811  53.0550  30.2983 0001658  95.0351 265.0827 15.06380174114471","OBJECT_NAME":"STARLINK-2392","GP_ID":"228992439","EPHEMERIS_TYPE":"0","MEAN_ELEMENT_THEORY":"SGP4","APOAPSIS":"548.423","PERIOD":"95.593","TLE_LINE1":"1 47811U 21018AA  23086.83449627  .00008050  00000-0  55899-3 0  9997","REF_FRAME":"TEME","BSTAR":"0.00055899000000","OBJECT_TYPE":"PAYLOAD","OBJECT_ID":"2021-018AA"},{"PERIAPSIS":"546.075","EPOCH":"2023-03-27T22:31:36.202944","REV_AT_EPOCH":"11400","MEAN_MOTION_DDOT":"0.0000000000000","CLASSIFICATION_TYPE":"U","LAUNCH_DATE":"2021-03-11","MEAN_MOTION":"15.06394128","TIME_SYSTEM":"UTC","NORAD_CAT_ID":"47812","FILE":"3872915","MEAN_ANOMALY":"250.8591","COUNTRY_CODE":"US","ELEMENT_SET_NO":"999","ECCENTRICITY":"0.00016700","MEAN_MOTION_DOT":"0.00015630","ARG_OF_PERICENTER":"109.2578","SEMIMAJOR_AXIS":"6925.367","RA_OF_ASC_NODE":"59.8327","SITE":"AFETR","RCS_SIZE":"LARGE","INCLINATION":"53.0564","CENTER_NAME":"EARTH","TLE_LINE1":"1 47812U 21018AB  23086.93861346  .00015630  00000-0  10660-2 0  9993","OBJECT_TYPE":"PAYLOAD","BSTAR":"0.00106600000000","OBJECT_ID":"2021-018AB","REF_FRAME":"TEME","PERIOD":"95.593","APOAPSIS":"548.388","EPHEMERIS_TYPE":"0","GP_ID":"228990688","OBJECT_NAME":"STARLINK-2393","MEAN_ELEMENT_THEORY":"SGP4","DECAY_DATE":null,"TLE_LINE2":"2 47812  53.0564  59.8327 0001670 109.2578 250.8591 15.06394128114002"},{"TLE_LINE1":"1 47813U 21018AC  23086.85660966  .00016458  00000-0  11214-2 0  9995","BSTAR":"0.00112140000000","OBJECT_TYPE":"PAYLOAD","OBJECT_ID":"2021-018AC","REF_FRAME":"TEME","APOAPSIS":"548.262","PERIOD":"95.593","EPHEMERIS_TYPE":"0","GP_ID":"228990938","OBJECT_NAME":"STARLINK-2394","MEAN_ELEMENT_THEORY":"SGP4","TLE_LINE2":"2 47813  53.0554  30.1957 0001489  95.1825 264.9334 15.06394277114476","DECAY_DATE":null,"REV_AT_EPOCH":"11447","PERIAPSIS":"546.200","EPOCH":"2023-03-27T20:33:31.074624","CLASSIFICATION_TYPE":"U","MEAN_MOTION_DDOT":"0.0000000000000","LAUNCH_DATE":"2021-03-11","MEAN_MOTION":"15.06394277","FILE":"3872915","TIME_SYSTEM":"UTC","NORAD_CAT_ID":"47813","ELEMENT_SET_NO":"999","ECCENTRICITY":"0.00014890","MEAN_ANOMALY":"264.9334","COUNTRY_CODE":"US","ARG_OF_PERICENTER":"95.1825","MEAN_MOTION_DOT":"0.00016458","RA_OF_ASC_NODE":"30.1957","SITE":"AFETR","SEMIMAJOR_AXIS":"6925.366","RCS_SIZE":"LARGE","INCLINATION":"53.0554","CENTER_NAME":"EARTH"}];
